{"type": "FeatureCollection", "features": [{"type": "Feature", "geometry": {"type": "Point", "coordinates": [-63.0409, -9.9133]}, "properties": {"name": "Ariquemes", "rank": 1, "kind": "city"}}, {"type": "Feature", "geometry": {"type": "Point", "coordinates": [-63.9039, -8.7619]}, "properties": {"name": "Porto Velho", "rank": 1, "kind": "city"}}, {"type": "Feature", "geometry": {"type": "Point", "coordinates": [-62.4664, -10.4392]}, "properties": {"name": "Jaru", "rank": 1, "kind": "city"}}, {"type": "Feature", "geometry": {"type": "Point", "coordinates": [-63.29, -10.257]}, "properties": {"name": "Monte Negro", "rank": 2, "kind": "city"}}, {"type": "Feature", "geometry": {"type": "Point", "coordinates": [-63.3195, -9.7147]}, "properties": {"name": "Alto Paraíso", "rank": 2, "kind": "city"}}, {"type": "Feature", "geometry": {"type": "Point", "coordinates": [-63.8296, -10.2091]}, "properties": {"name": "Buritis", "rank": 2, "kind": "city"}}, {"type": "Feature", "geometry": {"type": "Point", "coordinates": [-62.9037, -10.3389]}, "properties": {"name": "Cacaulândia", "rank": 2, "kind": "city"}}, {"type": "Feature", "geometry": {"type": "Point", "coordinates": [-63.701, -8.7898]}, "properties": {"name": "Candeias do Jamari", "rank": 2, "kind": "city"}}, {"type": "Feature", "geometry": {"type": "Point", "coordinates": [-63.1809, -9.1961]}, "properties": {"name": "Itapuã do Oeste", "rank": 2, "kind": "city"}}, {"type": "Feature", "geometry": {"type": "Point", "coordinates": [-62.585, -9.3608]}, "properties": {"name": "Cujubim", "rank": 2, "kind": "city"}}, {"type": "Feature", "geometry": {"type": "Point", "coordinates": [-61.9814, -9.4426]}, "properties": {"name": "Machadinho d'Oeste", "rank": 2, "kind": "city"}}, {"type": "Feature", "geometry": {"type": "Point", "coordinates": [-62.9015, -9.7031]}, "properties": {"name": "Rio Crespo", "rank": 2, "kind": "city"}}, {"type": "Feature", "geometry": {"type": "Point", "coordinates": [-62.2565, -10.7167]}, "properties": {"name": "Ouro Preto do Oeste", "rank": 2, "kind": "city"}}, {"type": "Feature", "geometry": {"type": "Point", "coordinates": [-62.5566, -10.9074]}, "properties": {"name": "Nova União", "rank": 2, "kind": "city"}}, {"type": "Feature", "geometry": {"type": "Point", "coordinates": [-62.3543, -10.2481]}, "properties": {"name": "Theobroma", "rank": 2, "kind": "city"}}, {"type": "Feature", "geometry": {"type": "Point", "coordinates": [-62.1815, -9.8622]}, "properties": {"name": "Vale do Anari", "rank": 2, "kind": "city"}}, {"type": "Feature", "geometry": {"type": "Point", "coordinates": [-63.455, -10.315]}, "properties": {"name": "serra da massangana\nou as mil ilhas de pedra", "rank": 3, "kind": "serra"}}, {"type": "Feature", "geometry": {"type": "Point", "coordinates": [-63.055, -9.795]}, "properties": {"name": "serra ouro verde", "rank": 3, "kind": "serra"}}, {"type": "Feature", "geometry": {"type": "Point", "coordinates": [-62.95, -11.28]}, "properties": {"name": "serra dos pacaás novos", "rank": 3, "kind": "serra"}}]}